{
"type": "FeatureCollection",
"name": "kalimantan_peatland_spatial",
"crs": { "type": "name", "properties": { "name": "urn:ogc:def:crs:OGC:1.3:CRS84" } },
"features": [
{ "type": "Feature", "properties": { "khg_id": "KHG_KB_01", "nama_khg": "KHG S. Kapuas - S. Terentang", "provinsi": "KALIMANTAN BARAT", "kabupaten": "Kubu Raya", "peat_depth": "Sangat Dalam (>300 cm)", "depth_cm": 380, "fungsi_zona": "Fungsi Lindung Ekosistem Gambut", "luas_ha": 185420.0 }, "geometry": { "type": "Polygon", "coordinates": [ [ [ 109.18, -0.15 ], [ 109.45, -0.1 ], [ 109.65, -0.35 ], [ 109.55, -0.65 ], [ 109.3, -0.7 ], [ 109.12, -0.45 ], [ 109.18, -0.15 ] ] ] } },
{ "type": "Feature", "properties": { "khg_id": "KHG_KB_02", "nama_khg": "KHG S. Ambawang - S. Landak", "provinsi": "KALIMANTAN BARAT", "kabupaten": "Kubu Raya", "peat_depth": "Dalam (200-300 cm)", "depth_cm": 260, "fungsi_zona": "Fungsi Budidaya Ekosistem Gambut", "luas_ha": 94310.0 }, "geometry": { "type": "Polygon", "coordinates": [ [ [ 109.35, -0.05 ], [ 109.55, 0.1 ], [ 109.72, 0.05 ], [ 109.68, -0.15 ], [ 109.45, -0.2 ], [ 109.35, -0.05 ] ] ] } },
{ "type": "Feature", "properties": { "khg_id": "KHG_KB_03", "nama_khg": "KHG S. Mempawah - S. Peniti", "provinsi": "KALIMANTAN BARAT", "kabupaten": "Mempawah", "peat_depth": "Sedang (100-200 cm)", "depth_cm": 160, "fungsi_zona": "Fungsi Budidaya Ekosistem Gambut", "luas_ha": 72540.0 }, "geometry": { "type": "Polygon", "coordinates": [ [ [ 108.95, 0.25 ], [ 109.2, 0.45 ], [ 109.35, 0.35 ], [ 109.25, 0.15 ], [ 109.05, 0.1 ], [ 108.95, 0.25 ] ] ] } },
{ "type": "Feature", "properties": { "khg_id": "KHG_KB_04", "nama_khg": "KHG S. Sambas Besar - S. Sebangkau", "provinsi": "KALIMANTAN BARAT", "kabupaten": "Sambas", "peat_depth": "Sedang (100-200 cm)", "depth_cm": 140, "fungsi_zona": "Fungsi Budidaya Ekosistem Gambut", "luas_ha": 81200.0 }, "geometry": { "type": "Polygon", "coordinates": [ [ [ 109.02, 1.25 ], [ 109.25, 1.55 ], [ 109.4, 1.45 ], [ 109.3, 1.15 ], [ 109.1, 1.1 ], [ 109.02, 1.25 ] ] ] } },
{ "type": "Feature", "properties": { "khg_id": "KHG_KB_05", "nama_khg": "KHG S. Paloh - S. Sebangkau", "provinsi": "KALIMANTAN BARAT", "kabupaten": "Sambas", "peat_depth": "Dangkal (50-100 cm)", "depth_cm": 85, "fungsi_zona": "Fungsi Budidaya Ekosistem Gambut", "luas_ha": 54890.0 }, "geometry": { "type": "Polygon", "coordinates": [ [ [ 109.15, 1.55 ], [ 109.35, 1.85 ], [ 109.5, 1.75 ], [ 109.38, 1.45 ], [ 109.15, 1.55 ] ] ] } },
{ "type": "Feature", "properties": { "khg_id": "KHG_KB_06", "nama_khg": "KHG S. Pawan - S. Tolak", "provinsi": "KALIMANTAN BARAT", "kabupaten": "Ketapang", "peat_depth": "Sangat Dalam (>300 cm)", "depth_cm": 420, "fungsi_zona": "Fungsi Lindung Ekosistem Gambut", "luas_ha": 312500.0 }, "geometry": { "type": "Polygon", "coordinates": [ [ [ 109.85, -1.35 ], [ 110.25, -1.25 ], [ 110.55, -1.55 ], [ 110.45, -1.95 ], [ 110.15, -2.15 ], [ 109.8, -1.85 ], [ 109.85, -1.35 ] ] ] } },
{ "type": "Feature", "properties": { "khg_id": "KHG_KB_07", "nama_khg": "KHG S. Pesaguan - S. Kendawangan", "provinsi": "KALIMANTAN BARAT", "kabupaten": "Ketapang", "peat_depth": "Dalam (200-300 cm)", "depth_cm": 280, "fungsi_zona": "Fungsi Lindung Ekosistem Gambut", "luas_ha": 245100.0 }, "geometry": { "type": "Polygon", "coordinates": [ [ [ 110.05, -2.15 ], [ 110.45, -2.05 ], [ 110.65, -2.45 ], [ 110.45, -2.75 ], [ 110.15, -2.65 ], [ 110.05, -2.15 ] ] ] } },
{ "type": "Feature", "properties": { "khg_id": "KHG_KB_08", "nama_khg": "KHG S. Simpang Hilir - S. Durian Sebatang", "provinsi": "KALIMANTAN BARAT", "kabupaten": "Kayong Utara", "peat_depth": "Dalam (200-300 cm)", "depth_cm": 260, "fungsi_zona": "Fungsi Lindung Ekosistem Gambut", "luas_ha": 115600.0 }, "geometry": { "type": "Polygon", "coordinates": [ [ [ 109.85, -1.05 ], [ 110.15, -0.95 ], [ 110.3, -1.2 ], [ 110.1, -1.35 ], [ 109.85, -1.2 ], [ 109.85, -1.05 ] ] ] } },
{ "type": "Feature", "properties": { "khg_id": "KHG_KT_01", "nama_khg": "KHG S. Kahayan - S. Sebangau", "provinsi": "KALIMANTAN TENGAH", "kabupaten": "Pulang Pisau", "peat_depth": "Sangat Dalam (>300 cm)", "depth_cm": 480, "fungsi_zona": "Fungsi Lindung Ekosistem Gambut", "luas_ha": 425600.0 }, "geometry": { "type": "Polygon", "coordinates": [ [ [ 113.65, -2.15 ], [ 114.15, -2.05 ], [ 114.35, -2.65 ], [ 114.25, -3.15 ], [ 113.85, -3.25 ], [ 113.6, -2.75 ], [ 113.65, -2.15 ] ] ] } },
{ "type": "Feature", "properties": { "khg_id": "KHG_KT_02", "nama_khg": "KHG S. Sebangau - S. Katingan", "provinsi": "KALIMANTAN TENGAH", "kabupaten": "Katingan", "peat_depth": "Sangat Dalam (>300 cm)", "depth_cm": 510, "fungsi_zona": "Fungsi Lindung Ekosistem Gambut", "luas_ha": 389400.0 }, "geometry": { "type": "Polygon", "coordinates": [ [ [ 113.25, -2.25 ], [ 113.65, -2.15 ], [ 113.75, -2.85 ], [ 113.55, -3.25 ], [ 113.15, -3.15 ], [ 113.1, -2.65 ], [ 113.25, -2.25 ] ] ] } },
{ "type": "Feature", "properties": { "khg_id": "KHG_KT_03", "nama_khg": "KHG S. Kahayan - S. Kapuas", "provinsi": "KALIMANTAN TENGAH", "kabupaten": "Kapuas", "peat_depth": "Sangat Dalam (>300 cm)", "depth_cm": 430, "fungsi_zona": "Fungsi Lindung Ekosistem Gambut", "luas_ha": 356800.0 }, "geometry": { "type": "Polygon", "coordinates": [ [ [ 114.15, -2.15 ], [ 114.65, -2.05 ], [ 114.75, -2.75 ], [ 114.55, -3.25 ], [ 114.25, -3.15 ], [ 114.15, -2.15 ] ] ] } },
{ "type": "Feature", "properties": { "khg_id": "KHG_KT_04", "nama_khg": "KHG S. Mentaya - S. Katingan", "provinsi": "KALIMANTAN TENGAH", "kabupaten": "Kotawaringin Timur", "peat_depth": "Dalam (200-300 cm)", "depth_cm": 290, "fungsi_zona": "Fungsi Budidaya Ekosistem Gambut", "luas_ha": 268900.0 }, "geometry": { "type": "Polygon", "coordinates": [ [ [ 112.75, -2.35 ], [ 113.15, -2.25 ], [ 113.25, -2.85 ], [ 113.05, -3.15 ], [ 112.65, -2.95 ], [ 112.75, -2.35 ] ] ] } },
{ "type": "Feature", "properties": { "khg_id": "KHG_KT_05", "nama_khg": "KHG S. Cempaga - S. Seruyan", "provinsi": "KALIMANTAN TENGAH", "kabupaten": "Kotawaringin Timur", "peat_depth": "Sedang (100-200 cm)", "depth_cm": 180, "fungsi_zona": "Fungsi Budidaya Ekosistem Gambut", "luas_ha": 142100.0 }, "geometry": { "type": "Polygon", "coordinates": [ [ [ 112.45, -2.05 ], [ 112.85, -2.0 ], [ 112.95, -2.45 ], [ 112.65, -2.55 ], [ 112.35, -2.35 ], [ 112.45, -2.05 ] ] ] } },
{ "type": "Feature", "properties": { "khg_id": "KHG_KT_06", "nama_khg": "KHG S. Arut - S. Kumai", "provinsi": "KALIMANTAN TENGAH", "kabupaten": "Kotawaringin Barat", "peat_depth": "Dalam (200-300 cm)", "depth_cm": 250, "fungsi_zona": "Fungsi Lindung Ekosistem Gambut", "luas_ha": 198500.0 }, "geometry": { "type": "Polygon", "coordinates": [ [ [ 111.45, -2.45 ], [ 111.85, -2.35 ], [ 111.95, -2.85 ], [ 111.75, -3.15 ], [ 111.35, -2.95 ], [ 111.45, -2.45 ] ] ] } },
{ "type": "Feature", "properties": { "khg_id": "KHG_KT_07", "nama_khg": "KHG S. Kumai - S. Cabang (TN Tanjung Puting)", "provinsi": "KALIMANTAN TENGAH", "kabupaten": "Kotawaringin Barat", "peat_depth": "Sangat Dalam (>300 cm)", "depth_cm": 360, "fungsi_zona": "Fungsi Lindung Ekosistem Gambut", "luas_ha": 215400.0 }, "geometry": { "type": "Polygon", "coordinates": [ [ [ 111.85, -2.75 ], [ 112.25, -2.65 ], [ 112.35, -3.25 ], [ 112.05, -3.45 ], [ 111.75, -3.25 ], [ 111.85, -2.75 ] ] ] } },
{ "type": "Feature", "properties": { "khg_id": "KHG_KS_01", "nama_khg": "KHG S. Barito - S. Alalak", "provinsi": "KALIMANTAN SELATAN", "kabupaten": "Barito Kuala", "peat_depth": "Sedang (100-200 cm)", "depth_cm": 150, "fungsi_zona": "Fungsi Budidaya Ekosistem Gambut", "luas_ha": 89200.0 }, "geometry": { "type": "Polygon", "coordinates": [ [ [ 114.45, -3.05 ], [ 114.75, -2.95 ], [ 114.85, -3.35 ], [ 114.55, -3.45 ], [ 114.45, -3.05 ] ] ] } },
{ "type": "Feature", "properties": { "khg_id": "KHG_KS_02", "nama_khg": "KHG S. Martapura - S. Riam Kanan", "provinsi": "KALIMANTAN SELATAN", "kabupaten": "Banjar", "peat_depth": "Dangkal (50-100 cm)", "depth_cm": 90, "fungsi_zona": "Fungsi Budidaya Ekosistem Gambut", "luas_ha": 62400.0 }, "geometry": { "type": "Polygon", "coordinates": [ [ [ 114.75, -3.25 ], [ 115.05, -3.15 ], [ 115.15, -3.45 ], [ 114.85, -3.55 ], [ 114.75, -3.25 ] ] ] } },
{ "type": "Feature", "properties": { "khg_id": "KHG_KS_03", "nama_khg": "KHG S. Tapin - S. Muning", "provinsi": "KALIMANTAN SELATAN", "kabupaten": "Tapin", "peat_depth": "Sedang (100-200 cm)", "depth_cm": 160, "fungsi_zona": "Fungsi Budidaya Ekosistem Gambut", "luas_ha": 71800.0 }, "geometry": { "type": "Polygon", "coordinates": [ [ [ 114.95, -2.85 ], [ 115.25, -2.75 ], [ 115.35, -3.05 ], [ 115.05, -3.15 ], [ 114.95, -2.85 ] ] ] } },
{ "type": "Feature", "properties": { "khg_id": "KHG_KS_04", "nama_khg": "KHG S. Negara - S. Amuntai", "provinsi": "KALIMANTAN SELATAN", "kabupaten": "Hulu Sungai Utara", "peat_depth": "Dalam (200-300 cm)", "depth_cm": 220, "fungsi_zona": "Fungsi Lindung Ekosistem Gambut", "luas_ha": 105400.0 }, "geometry": { "type": "Polygon", "coordinates": [ [ [ 115.05, -2.45 ], [ 115.35, -2.35 ], [ 115.45, -2.75 ], [ 115.15, -2.85 ], [ 115.05, -2.45 ] ] ] } },
{ "type": "Feature", "properties": { "khg_id": "KHG_KI_01", "nama_khg": "KHG S. Mahakam - S. Kedang Kepala", "provinsi": "KALIMANTAN TIMUR", "kabupaten": "Kutai Kartanegara", "peat_depth": "Sedang (100-200 cm)", "depth_cm": 160, "fungsi_zona": "Fungsi Lindung Ekosistem Gambut", "luas_ha": 128500.0 }, "geometry": { "type": "Polygon", "coordinates": [ [ [ 116.35, -0.45 ], [ 116.75, -0.35 ], [ 116.85, -0.75 ], [ 116.45, -0.85 ], [ 116.35, -0.45 ] ] ] } },
{ "type": "Feature", "properties": { "khg_id": "KHG_KI_02", "nama_khg": "KHG S. Belayan - S. Mahakam", "provinsi": "KALIMANTAN TIMUR", "kabupaten": "Kutai Kartanegara", "peat_depth": "Dangkal (50-100 cm)", "depth_cm": 95, "fungsi_zona": "Fungsi Budidaya Ekosistem Gambut", "luas_ha": 65400.0 }, "geometry": { "type": "Polygon", "coordinates": [ [ [ 116.15, 0.05 ], [ 116.45, 0.15 ], [ 116.55, -0.25 ], [ 116.25, -0.35 ], [ 116.15, 0.05 ] ] ] } },
{ "type": "Feature", "properties": { "khg_id": "KHG_KI_03", "nama_khg": "KHG S. Berau - S. Kelay", "provinsi": "KALIMANTAN TIMUR", "kabupaten": "Berau", "peat_depth": "Sedang (100-200 cm)", "depth_cm": 130, "fungsi_zona": "Fungsi Budidaya Ekosistem Gambut", "luas_ha": 84200.0 }, "geometry": { "type": "Polygon", "coordinates": [ [ [ 117.25, 2.05 ], [ 117.55, 2.25 ], [ 117.65, 1.85 ], [ 117.35, 1.75 ], [ 117.25, 2.05 ] ] ] } },
{ "type": "Feature", "properties": { "khg_id": "KHG_KU_01", "nama_khg": "KHG S. Kayan - S. Sesayap", "provinsi": "KALIMANTAN UTARA", "kabupaten": "Bulungan", "peat_depth": "Sedang (100-200 cm)", "depth_cm": 150, "fungsi_zona": "Fungsi Budidaya Ekosistem Gambut", "luas_ha": 96500.0 }, "geometry": { "type": "Polygon", "coordinates": [ [ [ 117.15, 2.75 ], [ 117.45, 2.95 ], [ 117.55, 2.55 ], [ 117.25, 2.45 ], [ 117.15, 2.75 ] ] ] } },
{ "type": "Feature", "properties": { "khg_id": "KHG_KU_02", "nama_khg": "KHG Delta Kayan - Tanjung Selor", "provinsi": "KALIMANTAN UTARA", "kabupaten": "Bulungan", "peat_depth": "Dalam (200-300 cm)", "depth_cm": 240, "fungsi_zona": "Fungsi Lindung Ekosistem Gambut", "luas_ha": 112000.0 }, "geometry": { "type": "Polygon", "coordinates": [ [ [ 117.35, 2.85 ], [ 117.75, 3.05 ], [ 117.85, 2.65 ], [ 117.45, 2.55 ], [ 117.35, 2.85 ] ] ] } },
{ "type": "Feature", "properties": { "khg_id": "KHG_KU_03", "nama_khg": "KHG S. Sembakung - S. Sebuku", "provinsi": "KALIMANTAN UTARA", "kabupaten": "Nunukan", "peat_depth": "Sedang (100-200 cm)", "depth_cm": 170, "fungsi_zona": "Fungsi Lindung Ekosistem Gambut", "luas_ha": 87600.0 }, "geometry": { "type": "Polygon", "coordinates": [ [ [ 116.95, 3.85 ], [ 117.35, 4.05 ], [ 117.45, 3.65 ], [ 117.05, 3.55 ], [ 116.95, 3.85 ] ] ] } }
]
}
